CCSDS_OMM_VERS = 2.0
CREATION_DATE  = 
ORIGINATOR     = 

OBJECT_NAME    = STARLINK-36810
OBJECT_ID      = 2026-035V
CENTER_NAME    = EARTH
REF_FRAME      = TEME
TIME_SYSTEM    = UTC
MEAN_ELEMENT_THEORY = SGP/SGP4

EPOCH          = 2026-03-19T22:00:00.999936
MEAN_MOTION    = 15.75222593
ECCENTRICITY   = .00012676
INCLINATION    = 97.2868
RA_OF_ASC_NODE = 11.8578
ARG_OF_PERICENTER = 89.5678
MEAN_ANOMALY   = 7.2310

EPHEMERIS_TYPE = 0
CLASSIFICATION_TYPE = U
NORAD_CAT_ID   = 67898
ELEMENT_SET_NO = 999
REV_AT_EPOCH   = 540
BSTAR          = -.38176355E-3
MEAN_MOTION_DOT = -.56775E-3
MEAN_MOTION_DDOT = 0

CCSDS_OMM_VERS = 2.0
CREATION_DATE  = 
ORIGINATOR     = 

OBJECT_NAME    = STARLINK-36878
OBJECT_ID      = 2026-035W
CENTER_NAME    = EARTH
REF_FRAME      = TEME
TIME_SYSTEM    = UTC
MEAN_ELEMENT_THEORY = SGP/SGP4

EPOCH          = 2026-03-19T18:22:10.537536
MEAN_MOTION    = 15.80961325
ECCENTRICITY   = .00016624
INCLINATION    = 97.2898
RA_OF_ASC_NODE = 11.7139
ARG_OF_PERICENTER = 121.6632
MEAN_ANOMALY   = 238.4799

EPHEMERIS_TYPE = 0
CLASSIFICATION_TYPE = U
NORAD_CAT_ID   = 67899
ELEMENT_SET_NO = 999
REV_AT_EPOCH   = 543
BSTAR          = .15795899E-2
MEAN_MOTION_DOT = .315722E-2
MEAN_MOTION_DDOT = 0

CCSDS_OMM_VERS = 2.0
CREATION_DATE  = 
ORIGINATOR     = 

OBJECT_NAME    = STARLINK-36361
OBJECT_ID      = 2026-035X
CENTER_NAME    = EARTH
REF_FRAME      = TEME
TIME_SYSTEM    = UTC
MEAN_ELEMENT_THEORY = SGP/SGP4

EPOCH          = 2026-03-19T18:21:05.486112
MEAN_MOTION    = 15.80911170
ECCENTRICITY   = .00013146
INCLINATION    = 97.2900
RA_OF_ASC_NODE = 11.7152
ARG_OF_PERICENTER = 119.5372
MEAN_ANOMALY   = 240.6027

EPHEMERIS_TYPE = 0
CLASSIFICATION_TYPE = U
NORAD_CAT_ID   = 67900
ELEMENT_SET_NO = 999
REV_AT_EPOCH   = 543
BSTAR          = .11585794E-2
MEAN_MOTION_DOT = .228688E-2
MEAN_MOTION_DDOT = 0

CCSDS_OMM_VERS = 2.0
CREATION_DATE  = 
ORIGINATOR     = 

OBJECT_NAME    = STARLINK-36336
OBJECT_ID      = 2026-035Y
CENTER_NAME    = EARTH
REF_FRAME      = TEME
TIME_SYSTEM    = UTC
MEAN_ELEMENT_THEORY = SGP/SGP4

EPOCH          = 2026-03-19T22:00:00.999936
MEAN_MOTION    = 15.75195074
ECCENTRICITY   = .00015121
INCLINATION    = 97.2861
RA_OF_ASC_NODE = 11.8734
ARG_OF_PERICENTER = 93.4338
MEAN_ANOMALY   = 37.3601

EPHEMERIS_TYPE = 0
CLASSIFICATION_TYPE = U
NORAD_CAT_ID   = 67901
ELEMENT_SET_NO = 999
REV_AT_EPOCH   = 545
BSTAR          = -.34948534E-3
MEAN_MOTION_DOT = -.51954E-3
MEAN_MOTION_DDOT = 0

CCSDS_OMM_VERS = 2.0
CREATION_DATE  = 
ORIGINATOR     = 

OBJECT_NAME    = STARLINK-36876
OBJECT_ID      = 2026-035Z
CENTER_NAME    = EARTH
REF_FRAME      = TEME
TIME_SYSTEM    = UTC
MEAN_ELEMENT_THEORY = SGP/SGP4

EPOCH          = 2026-03-19T18:20:00.627360
MEAN_MOTION    = 15.80906905
ECCENTRICITY   = .00009013
INCLINATION    = 97.2882
RA_OF_ASC_NODE = 11.7172
ARG_OF_PERICENTER = 45.4440
MEAN_ANOMALY   = 314.6902

EPHEMERIS_TYPE = 0
CLASSIFICATION_TYPE = U
NORAD_CAT_ID   = 67902
ELEMENT_SET_NO = 999
REV_AT_EPOCH   = 543
BSTAR          = .13963156E-2
MEAN_MOTION_DOT = .277143E-2
MEAN_MOTION_DDOT = 0

CCSDS_OMM_VERS = 2.0
CREATION_DATE  = 
ORIGINATOR     = 

OBJECT_NAME    = STARLINK-36257
OBJECT_ID      = 2026-035AA
CENTER_NAME    = EARTH
REF_FRAME      = TEME
TIME_SYSTEM    = UTC
MEAN_ELEMENT_THEORY = SGP/SGP4

EPOCH          = 2026-03-19T18:48:14.662656
MEAN_MOTION    = 15.75254158
ECCENTRICITY   = .00013924
INCLINATION    = 97.2880
RA_OF_ASC_NODE = 11.6926
ARG_OF_PERICENTER = 106.1671
MEAN_ANOMALY   = 253.9748

EPHEMERIS_TYPE = 0
CLASSIFICATION_TYPE = U
NORAD_CAT_ID   = 67903
ELEMENT_SET_NO = 999
REV_AT_EPOCH   = 543
BSTAR          = .11363992E-2
MEAN_MOTION_DOT = .173336E-2
MEAN_MOTION_DDOT = 0

CCSDS_OMM_VERS = 2.0
CREATION_DATE  = 
ORIGINATOR     = 

OBJECT_NAME    = STARLINK-36814
OBJECT_ID      = 2026-036A
CENTER_NAME    = EARTH
REF_FRAME      = TEME
TIME_SYSTEM    = UTC
MEAN_ELEMENT_THEORY = SGP/SGP4

EPOCH          = 2026-03-19T14:05:18.037248
MEAN_MOTION    = 15.50600116
ECCENTRICITY   = .00030811
INCLINATION    = 43.0032
RA_OF_ASC_NODE = 191.3092
ARG_OF_PERICENTER = 272.4927
MEAN_ANOMALY   = 87.5580

EPHEMERIS_TYPE = 0
CLASSIFICATION_TYPE = U
NORAD_CAT_ID   = 67904
ELEMENT_SET_NO = 999
REV_AT_EPOCH   = 521
BSTAR          = .12630035E-2
MEAN_MOTION_DOT = .74525E-3
MEAN_MOTION_DDOT = 0

CCSDS_OMM_VERS = 2.0
CREATION_DATE  = 
ORIGINATOR     = 

OBJECT_NAME    = STARLINK-36729
OBJECT_ID      = 2026-036B
CENTER_NAME    = EARTH
REF_FRAME      = TEME
TIME_SYSTEM    = UTC
MEAN_ELEMENT_THEORY = SGP/SGP4

EPOCH          = 2026-03-19T22:00:00.999936
MEAN_MOTION    = 15.50548519
ECCENTRICITY   = .00014567
INCLINATION    = 43.0006
RA_OF_ASC_NODE = 188.7350
ARG_OF_PERICENTER = 288.3378
MEAN_ANOMALY   = 16.2727

EPHEMERIS_TYPE = 0
CLASSIFICATION_TYPE = U
NORAD_CAT_ID   = 67905
ELEMENT_SET_NO = 999
REV_AT_EPOCH   = 529
BSTAR          = .37637998E-3
MEAN_MOTION_DOT = .21776E-3
MEAN_MOTION_DDOT = 0

CCSDS_OMM_VERS = 2.0
CREATION_DATE  = 
ORIGINATOR     = 

OBJECT_NAME    = STARLINK-36763
OBJECT_ID      = 2026-036C
CENTER_NAME    = EARTH
REF_FRAME      = TEME
TIME_SYSTEM    = UTC
MEAN_ELEMENT_THEORY = SGP/SGP4

EPOCH          = 2026-03-19T22:00:00.999936
MEAN_MOTION    = 15.50504117
ECCENTRICITY   = .00021294
INCLINATION    = 43.0004
RA_OF_ASC_NODE = 188.6616
ARG_OF_PERICENTER = 287.8682
MEAN_ANOMALY   = 46.5156

EPHEMERIS_TYPE = 0
CLASSIFICATION_TYPE = U
NORAD_CAT_ID   = 67906
ELEMENT_SET_NO = 999
REV_AT_EPOCH   = 529
BSTAR          = .58959829E-3
MEAN_MOTION_DOT = .34308E-3
MEAN_MOTION_DDOT = 0

CCSDS_OMM_VERS = 2.0
CREATION_DATE  = 
ORIGINATOR     = 

OBJECT_NAME    = STARLINK-36742
OBJECT_ID      = 2026-036D
CENTER_NAME    = EARTH
REF_FRAME      = TEME
TIME_SYSTEM    = UTC
MEAN_ELEMENT_THEORY = SGP/SGP4

EPOCH          = 2026-03-19T22:00:00.999936
MEAN_MOTION    = 15.50542477
ECCENTRICITY   = .00012088
INCLINATION    = 43.0005
RA_OF_ASC_NODE = 188.7120
ARG_OF_PERICENTER = 290.0084
MEAN_ANOMALY   = 23.8168

EPHEMERIS_TYPE = 0
CLASSIFICATION_TYPE = U
NORAD_CAT_ID   = 67907
ELEMENT_SET_NO = 999
REV_AT_EPOCH   = 529
BSTAR          = .71792944E-3
MEAN_MOTION_DOT = .41946E-3
MEAN_MOTION_DDOT = 0

CCSDS_OMM_VERS = 2.0
CREATION_DATE  = 
ORIGINATOR     = 

OBJECT_NAME    = STARLINK-36827
OBJECT_ID      = 2026-036E
CENTER_NAME    = EARTH
REF_FRAME      = TEME
TIME_SYSTEM    = UTC
MEAN_ELEMENT_THEORY = SGP/SGP4

EPOCH          = 2026-03-19T22:00:00.999936
MEAN_MOTION    = 15.50611454
ECCENTRICITY   = .00019696
INCLINATION    = 43.0006
RA_OF_ASC_NODE = 188.3991
ARG_OF_PERICENTER = 274.5872
MEAN_ANOMALY   = 165.9473

EPHEMERIS_TYPE = 0
CLASSIFICATION_TYPE = U
NORAD_CAT_ID   = 67908
ELEMENT_SET_NO = 999
REV_AT_EPOCH   = 529
BSTAR          = -.77371752E-3
MEAN_MOTION_DOT = -.45523E-3
MEAN_MOTION_DDOT = 0

CCSDS_OMM_VERS = 2.0
CREATION_DATE  = 
ORIGINATOR     = 

OBJECT_NAME    = STARLINK-36822
OBJECT_ID      = 2026-036F
CENTER_NAME    = EARTH
REF_FRAME      = TEME
TIME_SYSTEM    = UTC
MEAN_ELEMENT_THEORY = SGP/SGP4

EPOCH          = 2026-03-19T20:00:01.999872
MEAN_MOTION    = 15.50526554
ECCENTRICITY   = .00018593
INCLINATION    = 43.0001
RA_OF_ASC_NODE = 189.1422
ARG_OF_PERICENTER = 280.3255
MEAN_ANOMALY   = 311.2226

EPHEMERIS_TYPE = 0
CLASSIFICATION_TYPE = U
NORAD_CAT_ID   = 67909
ELEMENT_SET_NO = 999
REV_AT_EPOCH   = 527
BSTAR          = .1437381E-2
MEAN_MOTION_DOT = .84743E-3
MEAN_MOTION_DDOT = 0

