STARLINK-36810          
1 67898U 26035V   26078.91667824 -.00056775  00000+0 -38176-3 0  9999
2 67898  97.2868  11.8578 0001267  89.5678   7.2310 15.75222593  5402
STARLINK-36878          
1 67899U 26035W   26078.76539974  .00315722  00000+0  15796-2 0  9997
2 67899  97.2898  11.7139 0001662 121.6632 238.4799 15.80961325  5436
STARLINK-36361          
1 67900U 26035X   26078.76464683  .00228688  00000+0  11586-2 0  9991
2 67900  97.2900  11.7152 0001314 119.5372 240.6027 15.80911170  5431
STARLINK-36336          
1 67901U 26035Y   26078.91667824 -.00051954  00000+0 -34949-3 0  9992
2 67901  97.2861  11.8734 0001512  93.4338  37.3601 15.75195074  5459
STARLINK-36876          
1 67902U 26035Z   26078.76389615  .00277143  00000+0  13963-2 0  9995
2 67902  97.2882  11.7172 0000901  45.4440 314.6902 15.80906905  5432
STARLINK-36257          
1 67903U 26035AA  26078.78350304  .00173336  00000+0  11364-2 0  9993
2 67903  97.2880  11.6926 0001392 106.1671 253.9748 15.75254158  5436
STARLINK-36814          
1 67904U 26036A   26078.58701432  .00074525  00000+0  12630-2 0  9992
2 67904  43.0032 191.3092 0003081 272.4927  87.5580 15.50600116  5216
STARLINK-36729          
1 67905U 26036B   26078.91667824  .00021776  00000+0  37638-3 0  9992
2 67905  43.0006 188.7350 0001456 288.3378  16.2727 15.50548519  5293
STARLINK-36763          
1 67906U 26036C   26078.91667824  .00034308  00000+0  58960-3 0  9999
2 67906  43.0004 188.6616 0002129 287.8682  46.5156 15.50504117  5294
STARLINK-36742          
1 67907U 26036D   26078.91667824  .00041946  00000+0  71793-3 0  9995
2 67907  43.0005 188.7120 0001208 290.0084  23.8168 15.50542477  5298
STARLINK-36827          
1 67908U 26036E   26078.91667824 -.00045523  00000+0 -77372-3 0  9992
2 67908  43.0006 188.3991 0001969 274.5872 165.9473 15.50611454  5297
STARLINK-36822          
1 67909U 26036F   26078.83335648  .00084743  00000+0  14374-2 0  9997
2 67909  43.0001 189.1422 0001859 280.3255 311.2226 15.50526554  5275
